[{"OBJECT_NAME":"STARLINK-1402","OBJECT_ID":"2020-035AE","EPOCH":"2026-03-09T06:23:56.037120","MEAN_MOTION":15.44772661,"ECCENTRICITY":7.882e-5,"INCLINATION":53.0494,"RA_OF_ASC_NODE":25.4082,"ARG_OF_PERICENTER":198.8556,"MEAN_ANOMALY":161.242,"EPHEMERIS_TYPE":0,"CLASSIFICATION_TYPE":"U","NORAD_CAT_ID":45685,"ELEMENT_SET_NO":999,"REV_AT_EPOCH":31928,"BSTAR":0.0017105302,"MEAN_MOTION_DOT":0.00081749,"MEAN_MOTION_DDOT":0},{"OBJECT_NAME":"DELTA 1 DEB [YO]","OBJECT_ID":"1962-002C","EPOCH":"2026-03-09T12:58:51.022848","MEAN_MOTION":15.45837912,"ECCENTRICITY":0.00080399,"INCLINATION":48.4299,"RA_OF_ASC_NODE":124.8459,"ARG_OF_PERICENTER":7.1395,"MEAN_ANOMALY":352.966,"EPHEMERIS_TYPE":0,"CLASSIFICATION_TYPE":"U","NORAD_CAT_ID":228,"ELEMENT_SET_NO":999,"REV_AT_EPOCH":42765,"BSTAR":0.00070474925,"MEAN_MOTION_DOT":0.0003465,"MEAN_MOTION_DDOT":0}]
